CCSDS_OMM_VERS = 2.0
CREATION_DATE  = 
ORIGINATOR     = 

OBJECT_NAME    = 2025-274B
OBJECT_ID      = 2025-274B
CENTER_NAME    = EARTH
REF_FRAME      = TEME
TIME_SYSTEM    = UTC
MEAN_ELEMENT_THEORY = SGP/SGP4

EPOCH          = 2025-12-30T06:10:27.171552
MEAN_MOTION    = 14.91938942
ECCENTRICITY   = .00118009
INCLINATION    = 97.7391
RA_OF_ASC_NODE = 291.1300
ARG_OF_PERICENTER = 186.8978
MEAN_ANOMALY   = 173.2081

EPHEMERIS_TYPE = 0
CLASSIFICATION_TYPE = U
NORAD_CAT_ID   = 66651
ELEMENT_SET_NO = 999
REV_AT_EPOCH   = 501
BSTAR          = .59306259E-3
MEAN_MOTION_DOT = .5956E-4
MEAN_MOTION_DDOT = 0

CCSDS_OMM_VERS = 2.0
CREATION_DATE  = 
ORIGINATOR     = 

OBJECT_NAME    = 2025-274C
OBJECT_ID      = 2025-274C
CENTER_NAME    = EARTH
REF_FRAME      = TEME
TIME_SYSTEM    = UTC
MEAN_ELEMENT_THEORY = SGP/SGP4

EPOCH          = 2025-12-30T10:56:34.406592
MEAN_MOTION    = 14.92017301
ECCENTRICITY   = .00113011
INCLINATION    = 97.7402
RA_OF_ASC_NODE = 291.3327
ARG_OF_PERICENTER = 192.6380
MEAN_ANOMALY   = 167.4558

EPHEMERIS_TYPE = 0
CLASSIFICATION_TYPE = U
NORAD_CAT_ID   = 66652
ELEMENT_SET_NO = 999
REV_AT_EPOCH   = 504
BSTAR          = .46585407E-3
MEAN_MOTION_DOT = .4675E-4
MEAN_MOTION_DDOT = 0

CCSDS_OMM_VERS = 2.0
CREATION_DATE  = 
ORIGINATOR     = 

OBJECT_NAME    = 2025-274D
OBJECT_ID      = 2025-274D
CENTER_NAME    = EARTH
REF_FRAME      = TEME
TIME_SYSTEM    = UTC
MEAN_ELEMENT_THEORY = SGP/SGP4

EPOCH          = 2025-12-30T10:56:32.854848
MEAN_MOTION    = 14.91998059
ECCENTRICITY   = .00123006
INCLINATION    = 97.7400
RA_OF_ASC_NODE = 291.3323
ARG_OF_PERICENTER = 189.6302
MEAN_ANOMALY   = 170.4683

EPHEMERIS_TYPE = 0
CLASSIFICATION_TYPE = U
NORAD_CAT_ID   = 66653
ELEMENT_SET_NO = 999
REV_AT_EPOCH   = 504
BSTAR          = .35842738E-3
MEAN_MOTION_DOT = .3582E-4
MEAN_MOTION_DDOT = 0

CCSDS_OMM_VERS = 2.0
CREATION_DATE  = 
ORIGINATOR     = 

OBJECT_NAME    = JACK E
OBJECT_ID      = 2025-274E
CENTER_NAME    = EARTH
REF_FRAME      = TEME
TIME_SYSTEM    = UTC
MEAN_ELEMENT_THEORY = SGP/SGP4

EPOCH          = 2025-12-30T07:37:41.901312
MEAN_MOTION    = 14.92188062
ECCENTRICITY   = .00128176
INCLINATION    = 97.7404
RA_OF_ASC_NODE = 291.2066
ARG_OF_PERICENTER = 191.6749
MEAN_ANOMALY   = 168.4175

EPHEMERIS_TYPE = 0
CLASSIFICATION_TYPE = U
NORAD_CAT_ID   = 66654
ELEMENT_SET_NO = 999
REV_AT_EPOCH   = 502
BSTAR          = .39047439E-3
MEAN_MOTION_DOT = .3927E-4
MEAN_MOTION_DDOT = 0

CCSDS_OMM_VERS = 2.0
CREATION_DATE  = 
ORIGINATOR     = 

OBJECT_NAME    = 2025-274F
OBJECT_ID      = 2025-274F
CENTER_NAME    = EARTH
REF_FRAME      = TEME
TIME_SYSTEM    = UTC
MEAN_ELEMENT_THEORY = SGP/SGP4

EPOCH          = 2025-12-30T12:42:43.331616
MEAN_MOTION    = 14.91210976
ECCENTRICITY   = .00039404
INCLINATION    = 97.7326
RA_OF_ASC_NODE = 291.3778
ARG_OF_PERICENTER = 327.4553
MEAN_ANOMALY   = 32.6422

EPHEMERIS_TYPE = 0
CLASSIFICATION_TYPE = U
NORAD_CAT_ID   = 66655
ELEMENT_SET_NO = 999
REV_AT_EPOCH   = 505
BSTAR          = .6422387E-5
MEAN_MOTION_DOT = .9E-7
MEAN_MOTION_DDOT = 0

CCSDS_OMM_VERS = 2.0
CREATION_DATE  = 
ORIGINATOR     = 

OBJECT_NAME    = 2025-274G
OBJECT_ID      = 2025-274G
CENTER_NAME    = EARTH
REF_FRAME      = TEME
TIME_SYSTEM    = UTC
MEAN_ELEMENT_THEORY = SGP/SGP4

EPOCH          = 2025-12-30T05:54:59.105088
MEAN_MOTION    = 14.92388633
ECCENTRICITY   = .00133404
INCLINATION    = 97.7403
RA_OF_ASC_NODE = 291.1453
ARG_OF_PERICENTER = 193.5707
MEAN_ANOMALY   = 166.5155

EPHEMERIS_TYPE = 0
CLASSIFICATION_TYPE = U
NORAD_CAT_ID   = 66656
ELEMENT_SET_NO = 999
REV_AT_EPOCH   = 501
BSTAR          = .4196973E-3
MEAN_MOTION_DOT = .4247E-4
MEAN_MOTION_DDOT = 0

CCSDS_OMM_VERS = 2.0
CREATION_DATE  = 
ORIGINATOR     = 

OBJECT_NAME    = SPIRONE
OBJECT_ID      = 2025-274H
CENTER_NAME    = EARTH
REF_FRAME      = TEME
TIME_SYSTEM    = UTC
MEAN_ELEMENT_THEORY = SGP/SGP4

EPOCH          = 2025-12-30T07:25:43.401504
MEAN_MOTION    = 14.92569564
ECCENTRICITY   = .00112632
INCLINATION    = 97.7399
RA_OF_ASC_NODE = 291.2154
ARG_OF_PERICENTER = 209.9756
MEAN_ANOMALY   = 150.0819

EPHEMERIS_TYPE = 0
CLASSIFICATION_TYPE = U
NORAD_CAT_ID   = 66657
ELEMENT_SET_NO = 999
REV_AT_EPOCH   = 502
BSTAR          = .42884685E-3
MEAN_MOTION_DOT = .4359E-4
MEAN_MOTION_DDOT = 0

CCSDS_OMM_VERS = 2.0
CREATION_DATE  = 
ORIGINATOR     = 

OBJECT_NAME    = 2025-274J
OBJECT_ID      = 2025-274J
CENTER_NAME    = EARTH
REF_FRAME      = TEME
TIME_SYSTEM    = UTC
MEAN_ELEMENT_THEORY = SGP/SGP4

EPOCH          = 2025-12-30T05:43:30.415872
MEAN_MOTION    = 14.92772541
ECCENTRICITY   = .00117042
INCLINATION    = 97.7404
RA_OF_ASC_NODE = 291.1547
ARG_OF_PERICENTER = 212.9982
MEAN_ANOMALY   = 147.0508

EPHEMERIS_TYPE = 0
CLASSIFICATION_TYPE = U
NORAD_CAT_ID   = 66658
ELEMENT_SET_NO = 999
REV_AT_EPOCH   = 501
BSTAR          = .6966798E-3
MEAN_MOTION_DOT = .7157E-4
MEAN_MOTION_DDOT = 0

CCSDS_OMM_VERS = 2.0
CREATION_DATE  = 
ORIGINATOR     = 

OBJECT_NAME    = JACK K
OBJECT_ID      = 2025-274K
CENTER_NAME    = EARTH
REF_FRAME      = TEME
TIME_SYSTEM    = UTC
MEAN_ELEMENT_THEORY = SGP/SGP4

EPOCH          = 2025-12-30T08:50:41.169984
MEAN_MOTION    = 14.92920637
ECCENTRICITY   = .00124254
INCLINATION    = 97.7405
RA_OF_ASC_NODE = 291.2932
ARG_OF_PERICENTER = 214.3878
MEAN_ANOMALY   = 145.6539

EPHEMERIS_TYPE = 0
CLASSIFICATION_TYPE = U
NORAD_CAT_ID   = 66659
ELEMENT_SET_NO = 999
REV_AT_EPOCH   = 503
BSTAR          = .43770209E-3
MEAN_MOTION_DOT = .4491E-4
MEAN_MOTION_DDOT = 0

CCSDS_OMM_VERS = 2.0
CREATION_DATE  = 
ORIGINATOR     = 

OBJECT_NAME    = K-HERO
OBJECT_ID      = 2025-274L
CENTER_NAME    = EARTH
REF_FRAME      = TEME
TIME_SYSTEM    = UTC
MEAN_ELEMENT_THEORY = SGP/SGP4

EPOCH          = 2025-12-30T13:35:19.306752
MEAN_MOTION    = 14.93073612
ECCENTRICITY   = .00130024
INCLINATION    = 97.7409
RA_OF_ASC_NODE = 291.4969
ARG_OF_PERICENTER = 214.5036
MEAN_ANOMALY   = 145.5340

EPHEMERIS_TYPE = 0
CLASSIFICATION_TYPE = U
NORAD_CAT_ID   = 66660
ELEMENT_SET_NO = 999
REV_AT_EPOCH   = 506
BSTAR          = .45772789E-3
MEAN_MOTION_DOT = .4718E-4
MEAN_MOTION_DDOT = 0

CCSDS_OMM_VERS = 2.0
CREATION_DATE  = 
ORIGINATOR     = 

OBJECT_NAME    = SNUGLITE-III
OBJECT_ID      = 2025-274M
CENTER_NAME    = EARTH
REF_FRAME      = TEME
TIME_SYSTEM    = UTC
MEAN_ELEMENT_THEORY = SGP/SGP4

EPOCH          = 2025-12-30T13:30:43.489440
MEAN_MOTION    = 14.93200132
ECCENTRICITY   = .00135867
INCLINATION    = 97.7405
RA_OF_ASC_NODE = 291.4999
ARG_OF_PERICENTER = 215.8827
MEAN_ANOMALY   = 144.1481

EPHEMERIS_TYPE = 0
CLASSIFICATION_TYPE = U
NORAD_CAT_ID   = 66661
ELEMENT_SET_NO = 999
REV_AT_EPOCH   = 506
BSTAR          = .42379397E-3
MEAN_MOTION_DOT = .4379E-4
MEAN_MOTION_DDOT = 0

CCSDS_OMM_VERS = 2.0
CREATION_DATE  = 
ORIGINATOR     = 

OBJECT_NAME    = 2025-274N
OBJECT_ID      = 2025-274N
CENTER_NAME    = EARTH
REF_FRAME      = TEME
TIME_SYSTEM    = UTC
MEAN_ELEMENT_THEORY = SGP/SGP4

EPOCH          = 2025-12-30T13:28:51.896928
MEAN_MOTION    = 14.93261697
ECCENTRICITY   = .00140425
INCLINATION    = 97.7405
RA_OF_ASC_NODE = 291.5019
ARG_OF_PERICENTER = 215.6174
MEAN_ANOMALY   = 144.4110

EPHEMERIS_TYPE = 0
CLASSIFICATION_TYPE = U
NORAD_CAT_ID   = 66662
ELEMENT_SET_NO = 999
REV_AT_EPOCH   = 506
BSTAR          = .49033308E-3
MEAN_MOTION_DOT = .5084E-4
MEAN_MOTION_DDOT = 0

