2025-274B               
1 66651U 25274B   25364.25725893  .00005956  00000+0  59306-3 0  9995
2 66651  97.7391 291.1300 0011800 186.8978 173.2081 14.91938942  5013
2025-274C               
1 66652U 25274C   25364.45595378  .00004675  00000+0  46585-3 0  9993
2 66652  97.7402 291.3327 0011301 192.6380 167.4558 14.92017301  5041
2025-274D               
1 66653U 25274D   25364.45593582  .00003582  00000+0  35843-3 0  9990
2 66653  97.7400 291.3323 0012300 189.6302 170.4683 14.91998059  5046
JACK E                  
1 66654U 25274E   25364.31784608  .00003927  00000+0  39047-3 0  9990
2 66654  97.7404 291.2066 0012817 191.6749 168.4175 14.92188062  5022
2025-274F               
1 66655U 25274F   25364.52966819  .00000009  00000+0  64224-5 0  9995
2 66655  97.7326 291.3778 0003940 327.4553  32.6422 14.91210976  5055
2025-274G               
1 66656U 25274G   25364.24651742  .00004247  00000+0  41970-3 0  9990
2 66656  97.7403 291.1453 0013340 193.5707 166.5155 14.92388633  5011
SPIRONE                 
1 66657U 25274H   25364.30953011  .00004359  00000+0  42885-3 0  9992
2 66657  97.7399 291.2154 0011263 209.9756 150.0819 14.92569564  5023
2025-274J               
1 66658U 25274J   25364.23854648  .00007157  00000+0  69668-3 0  9998
2 66658  97.7404 291.1547 0011704 212.9982 147.0508 14.92772541  5012
JACK K                  
1 66659U 25274K   25364.36853206  .00004491  00000+0  43770-3 0  9996
2 66659  97.7405 291.2932 0012425 214.3878 145.6539 14.92920637  5035
K-HERO                  
1 66660U 25274L   25364.56619568  .00004718  00000+0  45773-3 0  9998
2 66660  97.7409 291.4969 0013002 214.5036 145.5340 14.93073612  5068
SNUGLITE-III            
1 66661U 25274M   25364.56300335  .00004379  00000+0  42379-3 0  9990
2 66661  97.7405 291.4999 0013586 215.8827 144.1481 14.93200132  5067
2025-274N               
1 66662U 25274N   25364.56171177  .00005084  00000+0  49033-3 0  9999
2 66662  97.7405 291.5019 0014042 215.6174 144.4110 14.93261697  5068
